{
  "type": "FeatureCollection",
  "features": [
    {
      "type": "Feature",
      "properties": {
        "norad_id": 55973,
        "name": "TIANMU-1 03",
        "group": "weather",
        "lat": 61.27788738605896,
        "lon": -8.494313893159752,
        "alt_km": 436.3211189575968,
        "timestamp": "2025-12-20T16:47:35.934276+00:00",
        "meta_object_name": "TIANMU-1 03",
        "meta_object_id": "2023-039A",
        "meta_epoch": "2025-12-20T11:36:34.468128",
        "meta_mean_motion": 15.4113486,
        "meta_eccentricity": 0.0004056,
        "meta_inclination": 97.5104,
        "meta_ra_of_asc_node": 157.3525,
        "meta_arg_of_pericenter": 38.9237,
        "meta_mean_anomaly": 321.2301,
        "meta_ephemeris_type": 0,
        "meta_classification_type": "U",
        "meta_norad_cat_id": 55973,
        "meta_element_set_no": 999,
        "meta_rev_at_epoch": 15325,
        "meta_bstar": 0.00026548,
        "meta_mean_motion_dot": 0.00010913,
        "meta_mean_motion_ddot": 0,
        "tle_line1": "1 55973U 23039A   25354.48373227  .00010913  00000+0  26548-3 0  9992",
        "tle_line2": "2 55973  97.5104 157.3525 0004056  38.9237 321.2301 15.41134860153253"
      },
      "geometry": {
        "type": "Point",
        "coordinates": [
          -8.494313893159752,
          61.27788738605896
        ]
      }
    },
    {
      "type": "Feature",
      "properties": {
        "norad_id": 55974,
        "name": "TIANMU-1 04",
        "group": "weather",
        "lat": -60.522344340165226,
        "lon": -36.722393644671506,
        "alt_km": 451.7018718392792,
        "timestamp": "2025-12-20T16:47:35.934287+00:00",
        "meta_object_name": "TIANMU-1 04",
        "meta_object_id": "2023-039B",
        "meta_epoch": "2025-12-20T12:38:00.549600",
        "meta_mean_motion": 15.41476735,
        "meta_eccentricity": 0.0004655,
        "meta_inclination": 97.5036,
        "meta_ra_of_asc_node": 156.5842,
        "meta_arg_of_pericenter": 32.8575,
        "meta_mean_anomaly": 327.296,
        "meta_ephemeris_type": 0,
        "meta_classification_type": "U",
        "meta_norad_cat_id": 55974,
        "meta_element_set_no": 999,
        "meta_rev_at_epoch": 15326,
        "meta_bstar": 0.00026231,
        "meta_mean_motion_dot": 0.00010906,
        "meta_mean_motion_ddot": 0,
        "tle_line1": "1 55974U 23039B   25354.52639525  .00010906  00000+0  26231-3 0  9995",
        "tle_line2": "2 55974  97.5036 156.5842 0004655  32.8575 327.2960 15.41476735153262"
      },
      "geometry": {
        "type": "Point",
        "coordinates": [
          -36.722393644671506,
          -60.522344340165226
        ]
      }
    },
    {
      "type": "Feature",
      "properties": {
        "norad_id": 55975,
        "name": "TIANMU-1 05",
        "group": "weather",
        "lat": -79.29189121677042,
        "lon": -66.96984077978335,
        "alt_km": 452.7549403466919,
        "timestamp": "2025-12-20T16:47:35.934297+00:00",
        "meta_object_name": "TIANMU-1 05",
        "meta_object_id": "2023-039C",
        "meta_epoch": "2025-12-20T12:32:30.077376",
        "meta_mean_motion": 15.41093161,
        "meta_eccentricity": 0.0004109,
        "meta_inclination": 97.5082,
        "meta_ra_of_asc_node": 157.073,
        "meta_arg_of_pericenter": 57.276,
        "meta_mean_anomaly": 302.8882,
        "meta_ephemeris_type": 0,
        "meta_classification_type": "U",
        "meta_norad_cat_id": 55975,
        "meta_element_set_no": 999,
        "meta_rev_at_epoch": 15324,
        "meta_bstar": 0.0002629,
        "meta_mean_motion_dot": 0.00010791,
        "meta_mean_motion_ddot": 0,
        "tle_line1": "1 55975U 23039C   25354.52257034  .00010791  00000+0  26290-3 0  9994",
        "tle_line2": "2 55975  97.5082 157.0730 0004109  57.2760 302.8882 15.41093161153245"
      },
      "geometry": {
        "type": "Point",
        "coordinates": [
          -66.96984077978335,
          -79.29189121677042
        ]
      }
    },
    {
      "type": "Feature",
      "properties": {
        "norad_id": 55976,
        "name": "TIANMU-1 06",
        "group": "weather",
        "lat": -50.28506260916929,
        "lon": -31.41068482868183,
        "alt_km": 451.55687542997657,
        "timestamp": "2025-12-20T16:47:35.934309+00:00",
        "meta_object_name": "TIANMU-1 06",
        "meta_object_id": "2023-039D",
        "meta_epoch": "2025-12-20T12:40:45.901920",
        "meta_mean_motion": 15.41528433,
        "meta_eccentricity": 0.0004404,
        "meta_inclination": 97.5093,
        "meta_ra_of_asc_node": 157.5505,
        "meta_arg_of_pericenter": 51.4999,
        "meta_mean_anomaly": 308.6642,
        "meta_ephemeris_type": 0,
        "meta_classification_type": "U",
        "meta_norad_cat_id": 55976,
        "meta_element_set_no": 999,
        "meta_rev_at_epoch": 15326,
        "meta_bstar": 0.0002624,
        "meta_mean_motion_dot": 0.00010928,
        "meta_mean_motion_ddot": 0,
        "tle_line1": "1 55976U 23039D   25354.52830905  .00010928  00000+0  26240-3 0  9996",
        "tle_line2": "2 55976  97.5093 157.5505 0004404  51.4999 308.6642 15.41528433153266"
      },
      "geometry": {
        "type": "Point",
        "coordinates": [
          -31.41068482868183,
          -50.28506260916929
        ]
      }
    },
    {
      "type": "Feature",
      "properties": {
        "norad_id": 56232,
        "name": "FENGYUN 3G",
        "group": "weather",
        "lat": 7.123267492619173,
        "lon": -167.6113955406305,
        "alt_km": 410.71986109956197,
        "timestamp": "2025-12-20T16:47:35.934320+00:00",
        "meta_object_name": "FENGYUN 3G",
        "meta_object_id": "2023-055A",
        "meta_epoch": "2025-12-20T13:40:01.305984",
        "meta_mean_motion": 15.54080698,
        "meta_eccentricity": 0.0009368,
        "meta_inclination": 49.9915,
        "meta_ra_of_asc_node": 187.0363,
        "meta_arg_of_pericenter": 183.7294,
        "meta_mean_anomaly": 176.3605,
        "meta_ephemeris_type": 0,
        "meta_classification_type": "U",
        "meta_norad_cat_id": 56232,
        "meta_element_set_no": 999,
        "meta_rev_at_epoch": 15224,
        "meta_bstar": 0.00033902,
        "meta_mean_motion_dot": 0.00022058,
        "meta_mean_motion_ddot": 0,
        "tle_line1": "1 56232U 23055A   25354.56945956  .00022058  00000+0  33902-3 0  9997",
        "tle_line2": "2 56232  49.9915 187.0363 0009368 183.7294 176.3605 15.54080698152243"
      },
      "geometry": {
        "type": "Point",
        "coordinates": [
          -167.6113955406305,
          7.123267492619173
        ]
      }
    },
    {
      "type": "Feature",
      "properties": {
        "norad_id": 57166,
        "name": "METEOR-M2 3",
        "group": "weather",
        "lat": -9.06221284722906,
        "lon": 49.48877211312521,
        "alt_km": 813.3068717831338,
        "timestamp": "2025-12-20T16:47:35.934331+00:00",
        "meta_object_name": "METEOR-M2 3",
        "meta_object_id": "2023-091A",
        "meta_epoch": "2025-12-20T11:46:38.190720",
        "meta_mean_motion": 14.24026942,
        "meta_eccentricity": 0.0003473,
        "meta_inclination": 98.6366,
        "meta_ra_of_asc_node": 47.8944,
        "meta_arg_of_pericenter": 345.6006,
        "meta_mean_anomaly": 14.5073,
        "meta_ephemeris_type": 0,
        "meta_classification_type": "U",
        "meta_norad_cat_id": 57166,
        "meta_element_set_no": 999,
        "meta_rev_at_epoch": 12908,
        "meta_bstar": 1.9804e-05,
        "meta_mean_motion_dot": 2e-08,
        "meta_mean_motion_ddot": 0,
        "tle_line1": "1 57166U 23091A   25354.49071980  .00000002  00000+0  19804-4 0  9994",
        "tle_line2": "2 57166  98.6366  47.8944 0003473 345.6006  14.5073 14.24026942129086"
      },
      "geometry": {
        "type": "Point",
        "coordinates": [
          49.48877211312521,
          -9.06221284722906
        ]
      }
    },
    {
      "type": "Feature",
      "properties": {
        "norad_id": 57399,
        "name": "TIANMU-1 07",
        "group": "weather",
        "lat": -80.58497762482317,
        "lon": 94.87729739762443,
        "alt_km": 491.6136322827306,
        "timestamp": "2025-12-20T16:47:35.934341+00:00",
        "meta_object_name": "TIANMU-1 07",
        "meta_object_id": "2023-101A",
        "meta_epoch": "2025-12-20T12:26:46.099104",
        "meta_mean_motion": 15.28174013,
        "meta_eccentricity": 0.0005295,
        "meta_inclination": 97.2866,
        "meta_ra_of_asc_node": 44.1971,
        "meta_arg_of_pericenter": 61.7172,
        "meta_mean_anomaly": 298.4602,
        "meta_ephemeris_type": 0,
        "meta_classification_type": "U",
        "meta_norad_cat_id": 57399,
        "meta_element_set_no": 999,
        "meta_rev_at_epoch": 13434,
        "meta_bstar": 0.00017929,
        "meta_mean_motion_dot": 4.852e-05,
        "meta_mean_motion_ddot": 0,
        "tle_line1": "1 57399U 23101A   25354.51858911  .00004852  00000+0  17929-3 0  9996",
        "tle_line2": "2 57399  97.2866  44.1971 0005295  61.7172 298.4602 15.28174013134342"
      },
      "geometry": {
        "type": "Point",
        "coordinates": [
          94.87729739762443,
          -80.58497762482317
        ]
      }
    }
  ]
}